IRIDIUM 152             
1 43479U 18047D   26061.70484131  .00000228  00000+0  74277-4 0  9992
2 43479  86.3987 132.8615 0002276  93.0223 267.1234 14.34218219407227
IRIDIUM 147             
1 43480U 18047E   26061.71118311  .00000119  00000+0  35337-4 0  9992
2 43480  86.3989 132.8621 0002204  99.4452 260.6993 14.34218361407221
IRIDIUM 110             
1 43481U 18047F   26061.71752732  .00000051  00000+0  11035-4 0  9998
2 43481  86.3991 132.9484 0002560  90.4593 269.6896 14.34217753407219
IRIDIUM 162             
1 43482U 18047G   26061.73985727  .00000382  00000+0  10752-3 0  9994
2 43482  86.4511 132.8788 0002122  91.8530 268.2914 14.43281218409771
IRIDIUM 160             
1 43569U 18061A   26061.59359385  .00000098  00000+0  27941-4 0  9998
2 43569  86.3926 101.3860 0002372  92.7525 267.3943 14.34218157398095
IRIDIUM 166             
1 43570U 18061B   26061.61896376  .00000153  00000+0  47418-4 0  9992
2 43570  86.3922 101.3272 0002176  96.3897 263.7547 14.34218115398122
IRIDIUM 158             
1 43571U 18061C   26061.65701774 -.00000037  00000+0 -20443-4 0  9996
2 43571  86.3928 101.3209 0002029  89.4651 270.6778 14.34216410398092
IRIDIUM 165             
1 43572U 18061D   26061.96146362  .00000114  00000+0  33796-4 0  9996
2 43572  86.3921 101.2378 0002183  96.4442 263.7003 14.34217979398162
IRIDIUM 155             
1 43573U 18061E   26061.64433384 -.00000040  00000+0 -21327-4 0  9992
2 43573  86.3922 101.2447 0001949  92.6432 267.4987 14.34217550398085
IRIDIUM 154             
1 43574U 18061F   26061.62532119  .00000292  00000+0  97184-4 0  9998
2 43574  86.3926 101.3816 0002188  98.9479 261.1965 14.34220996398138
IRIDIUM 163             
1 43575U 18061G   26061.60627899  .00000049  00000+0  10391-4 0  9992
2 43575  86.3924 101.3084 0002258  91.5058 268.6396 14.34217719398100
IRIDIUM 156             
1 43576U 18061H   26061.65067657  .00000066  00000+0  16675-4 0  9998
2 43576  86.3922 101.2967 0002029  93.4733 266.6695 14.34217887398101
IRIDIUM 164             
1 43577U 18061J   26061.63164902  .00000114  00000+0  33661-4 0  9996
2 43577  86.3925 101.3435 0002325  98.0490 262.0970 14.34218286398140
IRIDIUM 159             
1 43578U 18061K   26061.59993662 -.00000089  00000+0 -38964-4 0  9999
2 43578  86.3923 101.2953 0002276  92.4471 267.6985 14.34217283398104
IRIDIUM 180             
1 43922U 19002A   26061.94827463  .00000062  00000+0  14966-4 0  9997
2 43922  86.3962  37.9834 0002292  86.0503 274.0954 14.34217885373767
IRIDIUM 176             
1 43923U 19002B   26061.92545439  .00001251  00000+0  19442-3 0  9990
2 43923  86.6082  37.9510 0002341  87.5035 272.6450 14.72261761383610
IRIDIUM 168             
1 43924U 19002C   26061.94192931  .00000365  00000+0  12334-3 0  9996
2 43924  86.3962  38.0603 0002218  86.7744 273.3705 14.34220100373745
